ONEWEB-0033             
1 45142U 20008M   25274.96448517 -.00000457  00000+0 -13454-2 0  9996
2 45142  87.8737  87.7734 0001686  97.2261 262.9058 13.10371082274395
ONEWEB-0035             
1 45143U 20008N   25274.91884551  .00000272  00000+0  74404-3 0  9990
2 45143  87.8736  87.7842 0001691  94.6632 265.4689 13.10376887274110
ONEWEB-0036             
1 45144U 20008P   25274.90887584 -.00000269  00000+0 -80830-3 0  9997
2 45144  87.8756  87.7370 0001697  79.4973 280.6346 13.10376816274542
ONEWEB-0038             
1 45145U 20008Q   25274.90431226  .00000206  00000+0  54414-3 0  9994
2 45145  87.8799  72.5044 0000692 180.9525 179.1601 13.11415432276474
ONEWEB-0039             
1 45146U 20008R   25274.96781847 -.00000220  00000+0 -66651-3 0  9992
2 45146  87.8751  87.7412 0001346  71.5187 288.6087 13.10372810274345
ONEWEB-0040             
1 45147U 20008S   25274.96115736 -.00000294  00000+0 -87807-3 0  9998
2 45147  87.8737  87.7730 0001579  89.2879 270.8429 13.10371041274040
ONEWEB-0043             
1 45149U 20008U   25274.96282654 -.00000426  00000+0 -12564-2 0  9998
2 45149  87.8735  87.7549 0001705  74.8661 285.2654 13.10370894274368
ONEWEB-0044             
1 45150U 20008V   25274.91469239  .00000111  00000+0  28193-3 0  9996
2 45150  87.8740  87.7556 0001661  80.2449 279.8866 13.10376903274653
